{
    "links": {
        "self": "http://www.neowsapp.com/rest/v1/neo/3747495?api_key=iIulBulltgU6a56xZRHN4H3l9WmuAYTsLGpBGhQ2"
    },
    "id": "3747495",
    "neo_reference_id": "3747495",
    "name": "(2016 EE195)",
    "designation": "2016 EE195",
    "nasa_jpl_url": "http://ssd.jpl.nasa.gov/sbdb.cgi?sstr=3747495",
    "absolute_magnitude_h": 26.7,
    "estimated_diameter": {
        "kilometers": {
            "estimated_diameter_min": 0.0121494041,
            "estimated_diameter_max": 0.0271668934
        },
        "meters": {
            "estimated_diameter_min": 12.14940408,
            "estimated_diameter_max": 27.1668934089
        },
        "miles": {
            "estimated_diameter_min": 0.0075492874,
            "estimated_diameter_max": 0.0168807197
        },
        "feet": {
            "estimated_diameter_min": 39.8602508817,
            "estimated_diameter_max": 89.1302305717
        }
    },
    "is_potentially_hazardous_asteroid": false,
    "close_approach_data": [
        {
            "close_approach_date": "2016-03-09",
            "close_approach_date_full": "2016-Mar-09 14:36",
            "epoch_date_close_approach": 1457534160000,
            "relative_velocity": {
                "kilometers_per_second": "5.1914241839",
                "kilometers_per_hour": "18689.1270619515",
                "miles_per_hour": "11612.6967569109"
            },
            "miss_distance": {
                "astronomical": "0.0350560333",
                "lunar": "13.6367969537",
                "kilometers": "5244307.912329071",
                "miles": "3258661.8305643398"
            },
            "orbiting_body": "Earth"
        },
        {
            "close_approach_date": "2021-01-04",
            "close_approach_date_full": "2021-Jan-04 07:41",
            "epoch_date_close_approach": 1609746060000,
            "relative_velocity": {
                "kilometers_per_second": "15.4136995306",
                "kilometers_per_hour": "55489.3183100675",
                "miles_per_hour": "34478.9044799417"
            },
            "miss_distance": {
                "astronomical": "0.4122395224",
                "lunar": "160.3611742136",
                "kilometers": "61670154.480857288",
                "miles": "38320057.0697470544"
            },
            "orbiting_body": "Earth"
        },
        {
            "close_approach_date": "2034-04-15",
            "close_approach_date_full": "2034-Apr-15 08:47",
            "epoch_date_close_approach": 2028703620000,
            "relative_velocity": {
                "kilometers_per_second": "17.1659935052",
                "kilometers_per_hour": "61797.5766186174",
                "miles_per_hour": "38398.6108717181"
            },
            "miss_distance": {
                "astronomical": "0.4511371605",
                "lunar": "175.4923554345",
                "kilometers": "67489158.288648135",
                "miles": "41935818.370828863"
            },
            "orbiting_body": "Earth"
        }
    ],
    "orbital_data": {
        "orbit_id": "7",
        "orbit_determination_date": "2017-04-06 08:27:22",
        "first_observation_date": "2016-03-15",
        "last_observation_date": "2016-04-01",
        "data_arc_in_days": 17,
        "observations_used": 62,
        "orbit_uncertainty": "7",
        "minimum_orbit_intersection": ".032988",
        "jupiter_tisserand_invariant": "4.726",
        "epoch_osculation": "2459000.5",
        "eccentricity": ".2740643003093495",
        "semi_major_axis": "1.392261385205787",
        "inclination": "6.444792353327262",
        "ascending_node_longitude": "174.56381225288",
        "orbital_period": "600.0391592839195",
        "perihelion_distance": "1.010692242821638",
        "perihelion_argument": "333.8831612545851",
        "aphelion_distance": "1.773830527589937",
        "perihelion_time": "2459238.813444902120",
        "mean_anomaly": "217.0212646335492",
        "mean_motion": ".5999608432716629",
        "equinox": "J2000",
        "orbit_class": {
            "orbit_class_type": "APO",
            "orbit_class_description": "Near-Earth asteroid orbits which cross the Earth’s orbit similar to that of 1862 Apollo",
            "orbit_class_range": "a (semi-major axis) > 1.0 AU; q (perihelion) < 1.017 AU"
        }
    },
    "is_sentry_object": false
}